CTC2_L_00224016-03
1 10062U 22929DF  26075.70042824  .00000000  00000+0  00000-0 0  9999
2 10062  45.0000 180.0000 0000000   0.0000   0.0000 14.24551792    10
CTC2_L_00224016-04
1 10063U 24926XR  26075.70042824  .00000000  00000+0  00000-0 0  9999
2 10063  45.0000 180.0000 0000000   0.0000  90.0000 14.24551792    10
CTC2_L_00224017-01
1 10064U 23448UI  26075.70042824  .00000000  00000+0  00000-0 0  9998
2 10064  45.0000 192.0000 0000000   0.0000 192.0000 14.24551792    17
CTC2_L_00224017-02
1 10065U 24211JJ  26075.70042824  .00000000  00000+0  00000-0 0  9998
2 10065  45.0000 192.0000 0000000   0.0000 282.0000 14.24551792    18
CTC2_L_00224017-03
1 10066U 25820BI  26075.70042824  .00000000  00000+0  00000-0 0  9996
2 10066  45.0000 192.0000 0000000   0.0000  12.0000 14.24551792    10
CTC2_L_00224017-04
1 10067U 25519GQ  26075.70042824  .00000000  00000+0  00000-0 0  9992
2 10067  45.0000 192.0000 0000000   0.0000 102.0000 14.24551792    11
CTC2_L_00224018-01
1 10068U 26272NG  26075.70042824  .00000000  00000+0  00000-0 0  9990
2 10068  45.0000 204.0000 0000000   0.0000 204.0000 14.24551792    19
CTC2_L_00224018-02
1 10069U 23703EW  26075.70042824  .00000000  00000+0  00000-0 0  9997
2 10069  45.0000 204.0000 0000000   0.0000 294.0000 14.24551792    19
CTC2_L_00224018-03
1 10070U 25354XY  26075.70042824  .00000000  00000+0  00000-0 0  9993
2 10070  45.0000 204.0000 0000000   0.0000  24.0000 14.24551792    12
CTC2_L_00224018-04
1 10071U 22932ES  26075.70042824  .00000000  00000+0  00000-0 0  9993
2 10071  45.0000 204.0000 0000000   0.0000 114.0000 14.24551792    13
CTC2_L_00224019-01
1 10072U 23923WN  26075.70042824  .00000000  00000+0  00000-0 0  9995
2 10072  45.0000 216.0000 0000000   0.0000 216.0000 14.24551792    10
CTC2_L_00224019-02
1 10073U 23006U   26075.70042824  .00000000  00000+0  00000-0 0  9998
2 10073  45.0000 216.0000 0000000   0.0000 306.0000 14.24551792    11
CTC2_L_00224019-03
1 10074U 24989UO  26075.70042824  .00000000  00000+0  00000-0 0  9990
2 10074  45.0000 216.0000 0000000   0.0000  36.0000 14.24551792    12
CTC2_L_00224019-04
1 10075U 22848YS  26075.70042824  .00000000  00000+0  00000-0 0  9993
2 10075  45.0000 216.0000 0000000   0.0000 126.0000 14.24551792    13
CTC2_L_00224020-01
1 10076U 26045AP  26075.70042824  .00000000  00000+0  00000-0 0  9997
2 10076  45.0000 228.0000 0000000   0.0000 228.0000 14.24551792    10
CTC2_L_00224020-02
1 10077U 25266ZP  26075.70042824  .00000000  00000+0  00000-0 0  9992
2 10077  45.0000 228.0000 0000000   0.0000 318.0000 14.24551792    11
CTC2_L_00224020-03
1 10078U 22675FL  26075.70042824  .00000000  00000+0  00000-0 0  9994
2 10078  45.0000 228.0000 0000000   0.0000  48.0000 14.24551792    12
CTC2_L_00224020-04
1 10079U 24971UG  26075.70042824  .00000000  00000+0  00000-0 0  9996
2 10079  45.0000 228.0000 0000000   0.0000 138.0000 14.24551792    13
CTC2_L_00224021-01
1 10080U 25774UU  26075.70042824  .00000000  00000+0  00000-0 0  9990
2 10080  45.0000 240.0000 0000000   0.0000 240.0000 14.24551792    13
CTC2_L_00224021-02
1 10081U 23197XH  26075.70042824  .00000000  00000+0  00000-0 0  9998
2 10081  45.0000 240.0000 0000000   0.0000 330.0000 14.24551792    14
CTC2_L_00224021-03
1 10082U 24657XS  26075.70042824  .00000000  00000+0  00000-0 0  9991
2 10082  45.0000 240.0000 0000000   0.0000  60.0000 14.24551792    15
CTC2_L_00224021-04
1 10083U 26880GK  26075.70042824  .00000000  00000+0  00000-0 0  9992
2 10083  45.0000 240.0000 0000000   0.0000 150.0000 14.24551792    16
CTC2_L_00224022-01
1 10084U 22965CX  26075.70042824  .00000000  00000+0  00000-0 0  9993
2 10084  45.0000 252.0000 0000000   0.0000 252.0000 14.24551792    13
CTC2_L_00224022-02
1 10085U 26761EA  26075.70042824  .00000000  00000+0  00000-0 0  9992
2 10085  45.0000 252.0000 0000000   0.0000 342.0000 14.24551792    14
CTC2_L_00224022-03
1 10086U 23968EM  26075.70042824  .00000000  00000+0  00000-0 0  9999
2 10086  45.0000 252.0000 0000000   0.0000  72.0000 14.24551792    15
CTC2_L_00224022-04
1 10087U 25471YB  26075.70042824  .00000000  00000+0  00000-0 0  9991
2 10087  45.0000 252.0000 0000000   0.0000 162.0000 14.24551792    16
CTC2_L_00224023-01
1 10088U 23305YQ  26075.70042824  .00000000  00000+0  00000-0 0  9996
2 10088  45.0000 264.0000 0000000   0.0000 264.0000 14.24551792    13
CTC2_L_00224023-02
1 10089U 23668AF  26075.70042824  .00000000  00000+0  00000-0 0  9999
2 10089  45.0000 264.0000 0000000   0.0000 354.0000 14.24551792    14
CTC2_L_00224023-03
1 10090U 24950PK  26075.70042824  .00000000  00000+0  00000-0 0  9996
2 10090  45.0000 264.0000 0000000   0.0000  84.0000 14.24551792    16
CTC2_L_00224023-04
1 10091U 23504K   26075.70042824  .00000000  00000+0  00000-0 0  9991
2 10091  45.0000 264.0000 0000000   0.0000 174.0000 14.24551792    17
CTC2_L_00224024-01
1 10092U 22882EZ  26075.70042824  .00000000  00000+0  00000-0 0  9990
2 10092  45.0000 276.0000 0000000   0.0000 276.0000 14.24551792    14
CTC2_L_00224024-02
1 10093U 23014GF  26075.70042824  .00000000  00000+0  00000-0 0  9999
2 10093  45.0000 276.0000 0000000   0.0000   6.0000 14.24551792    16
CTC2_L_00224024-03
1 10094U 23512YH  26075.70042824  .00000000  00000+0  00000-0 0  9993
2 10094  45.0000 276.0000 0000000   0.0000  96.0000 14.24551792    16
CTC2_L_00224024-04
1 10095U 26741DV  26075.70042824  .00000000  00000+0  00000-0 0  9991
2 10095  45.0000 276.0000 0000000   0.0000 186.0000 14.24551792    17
CTC2_L_00224025-01
1 10096U 26399UN  26075.70042824  .00000000  00000+0  00000-0 0  9991
2 10096  45.0000 288.0000 0000000   0.0000 288.0000 14.24551792    14
CTC2_L_00224025-02
1 10097U 23544KK  26075.70042824  .00000000  00000+0  00000-0 0  9991
2 10097  45.0000 288.0000 0000000   0.0000  18.0000 14.24551792    16
CTC2_L_00224025-03
1 10098U 25565FC  26075.70042824  .00000000  00000+0  00000-0 0  9997
2 10098  45.0000 288.0000 0000000   0.0000 108.0000 14.24551792    17
CTC2_L_00224025-04
1 10099U 24215UL  26075.70042824  .00000000  00000+0  00000-0 0  9999
2 10099  45.0000 288.0000 0000000   0.0000 198.0000 14.24551792    17
CTC2_L_00224026-01
1 10100U 23686EH  26075.70042824  .00000000  00000+0  00000-0 0  9993
2 10100  45.0000 300.0000 0000000   0.0000 300.0000 14.24551792    10
CTC2_L_00224026-02
1 10101U 22334FR  26075.70042824  .00000000  00000+0  00000-0 0  9993
2 10101  45.0000 300.0000 0000000   0.0000  30.0000 14.24551792    11
CTC2_L_00224026-03
1 10102U 22578XR  26075.70042824  .00000000  00000+0  00000-0 0  9994
2 10102  45.0000 300.0000 0000000   0.0000 120.0000 14.24551792    12
CTC2_L_00224026-04
1 10103U 23575C   26075.70042824  .00000000  00000+0  00000-0 0  9993
2 10103  45.0000 300.0000 0000000   0.0000 210.0000 14.24551792    13
CTC2_L_00224027-01
1 10104U 22973TZ  26075.70042824  .00000000  00000+0  00000-0 0  9995
2 10104  45.0000 312.0000 0000000   0.0000 312.0000 14.24551792    10
CTC2_L_00224027-02
1 10105U 23336TD  26075.70042824  .00000000  00000+0  00000-0 0  9990
2 10105  45.0000 312.0000 0000000   0.0000  42.0000 14.24551792    11
CTC2_L_00224027-03
1 10106U 22584LR  26075.70042824  .00000000  00000+0  00000-0 0  9995
2 10106  45.0000 312.0000 0000000   0.0000 132.0000 14.24551792    12
CTC2_L_00224027-04
1 10107U 26392EH  26075.70042824  .00000000  00000+0  00000-0 0  9997
2 10107  45.0000 312.0000 0000000   0.0000 222.0000 14.24551792    13
CTC2_L_00224028-01
1 10108U 23036AM  26075.70042824  .00000000  00000+0  00000-0 0  9990
2 10108  45.0000 324.0000 0000000   0.0000 324.0000 14.24551792    10
CTC2_L_00224028-02
1 10109U 22136YO  26075.70042824  .00000000  00000+0  00000-0 0  9991
2 10109  45.0000 324.0000 0000000   0.0000  54.0000 14.24551792    11
CTC2_L_00224028-03
1 10110U 23965VD  26075.70042824  .00000000  00000+0  00000-0 0  9994
2 10110  45.0000 324.0000 0000000   0.0000 144.0000 14.24551792    13
CTC2_L_00224028-04
1 10111U 26469UC  26075.70042824  .00000000  00000+0  00000-0 0  9997
2 10111  45.0000 324.0000 0000000   0.0000 234.0000 14.24551792    14
CTC2_L_00224029-01
1 10112U 22243MW  26075.70042824  .00000000  00000+0  00000-0 0  9994
2 10112  45.0000 336.0000 0000000   0.0000 336.0000 14.24551792    11
CTC2_L_00224029-02
1 10113U 24430BG  26075.70042824  .00000000  00000+0  00000-0 0  9995
2 10113  45.0000 336.0000 0000000   0.0000  66.0000 14.24551792    12
CTC2_L_00224029-03
1 10114U 26306DI  26075.70042824  .00000000  00000+0  00000-0 0  9990
2 10114  45.0000 336.0000 0000000   0.0000 156.0000 14.24551792    13
CTC2_L_00224029-04
1 10115U 22935DX  26075.70042824  .00000000  00000+0  00000-0 0  9995
2 10115  45.0000 336.0000 0000000   0.0000 246.0000 14.24551792    14
CTC2_L_00224030-01
1 10116U 22731BK  26075.70042824  .00000000  00000+0  00000-0 0  9990
2 10116  45.0000 348.0000 0000000   0.0000 348.0000 14.24551792    11
CTC2_L_00224030-02
1 10117U 26479PN  26075.70042824  .00000000  00000+0  00000-0 0  9994
2 10117  45.0000 348.0000 0000000   0.0000  78.0000 14.24551792    12
CTC2_L_00224030-03
1 10118U 22901MI  26075.70042824  .00000000  00000+0  00000-0 0  9991
2 10118  45.0000 348.0000 0000000   0.0000 168.0000 14.24551792    13
CTC2_L_00224030-04
1 10119U 24808OA  26075.70042824  .00000000  00000+0  00000-0 0  9990
2 10119  45.0000 348.0000 0000000   0.0000 258.0000 14.24551792    14
